1998-067XX              
1 66911U 98067XX  25343.11695649  .00085582  00000+0  14246-2 0  9997
2 66911  51.6296 160.3494 0005703 191.2268 168.8595 15.51276485  1046
1998-067XY              
1 66912U 98067XY  25342.79680750  .00056065  00000+0  96272-3 0  9992
2 66912  51.6301 161.9610 0005043 202.8278 157.2488 15.50590071   993
2025-284A               
1 66913U 25284A   25344.48897963  .00014980  00000+0  71514-3 0  9990
2 66913  80.4047 132.6177 0011957 211.3387 148.7130 15.18896949   784
2025-284B               
1 66914U 25284B   25344.55439325  .00014926  00000+0  71419-3 0  9997
2 66914  80.4057 132.5353 0008179 253.8580 106.1747 15.18851979   796
HULIANWANG DIGUI 14A    
1 66915U 25285A   25344.49761703 -.00000129  00000+0  14207-4 0  9994
2 66915  50.0034 126.4203 0008111 275.0273  84.9706 14.05466377   597
HULIANWANG DIGUI 14B    
1 66916U 25285B   25344.49747432 -.00000129  00000+0  14270-4 0  9998
2 66916  50.0045 126.4208 0006964 269.7548  90.2559 14.05512764   592
HULIANWANG DIGUI 14C    
1 66917U 25285C   25344.49726433 -.00000156  00000+0 -26357-5 0  9998
2 66917  50.0009 126.4163 0007534 277.4365  82.5684 14.05578834   593
HULIANWANG DIGUI 14D    
1 66918U 25285D   25344.49690887 -.00000144  00000+0  52437-5 0  9996
2 66918  50.0042 126.4163 0006461 272.5409  87.4756 14.05703368   590
HULIANWANG DIGUI 14E    
1 66919U 25285E   25344.49685559 -.00000161  00000+0 -53243-5 0  9993
2 66919  50.0056 126.4189 0007862 283.9415  76.0616 14.05714500   592
HULIANWANG DIGUI 14F    
1 66920U 25285F   25343.85672775  .00000334  00000+0  26469-3 0  9998
2 66920  50.0040 128.9355 0030596 264.6131  95.1286 14.11847534   507
HULIANWANG DIGUI 14G    
1 66921U 25285G   25344.49637275  .00000275  00000+0  25964-3 0  9999
2 66921  50.0113 126.4219 0006742 285.8548  74.1614 14.05885102   591
HULIANWANG DIGUI 14H    
1 66922U 25285H   25344.49604022 -.00000158  00000+0 -33227-5 0  9999
2 66922  50.0078 126.4163 0006935 293.8062  66.2116 14.05998135   594
